LEMUR-2-ANDIS           
1 42838U 17042P   26068.55941107  .00023598  00000+0  79875-3 0  9998
2 42838  97.3659 249.7950 0009101   4.3248 355.8070 15.30557934473198
STARLINK-36047          
1 66795U 25278E   26068.53126251  .00016027  00000+0  59027-3 0  9995
2 66795  43.0018 115.3715 0001460 254.6191 105.4499 15.27601267 15187
